CCSDS_OMM_VERS = 2.0
CREATION_DATE  = 
ORIGINATOR     = 

OBJECT_NAME    = SILVERSAT
OBJECT_ID      = 1998-067XV
CENTER_NAME    = EARTH
REF_FRAME      = TEME
TIME_SYSTEM    = UTC
MEAN_ELEMENT_THEORY = SGP/SGP4

EPOCH          = 2026-02-11T10:40:28.314624
MEAN_MOTION    = 15.63779460
ECCENTRICITY   = .00024557
INCLINATION    = 51.6259
RA_OF_ASC_NODE = 198.4045
ARG_OF_PERICENTER = 272.0234
MEAN_ANOMALY   = 88.0479

EPHEMERIS_TYPE = 0
CLASSIFICATION_TYPE = U
NORAD_CAT_ID   = 66909
ELEMENT_SET_NO = 999
REV_AT_EPOCH   = 1107
BSTAR          = .15839149E-2
MEAN_MOTION_DOT = .153545E-2
MEAN_MOTION_DDOT = 0

CCSDS_OMM_VERS = 2.0
CREATION_DATE  = 
ORIGINATOR     = 

OBJECT_NAME    = ISS OBJECT XW
OBJECT_ID      = 1998-067XW
CENTER_NAME    = EARTH
REF_FRAME      = TEME
TIME_SYSTEM    = UTC
MEAN_ELEMENT_THEORY = SGP/SGP4

EPOCH          = 2026-02-11T11:06:27.313632
MEAN_MOTION    = 15.62201503
ECCENTRICITY   = .00015189
INCLINATION    = 51.6249
RA_OF_ASC_NODE = 198.5199
ARG_OF_PERICENTER = 308.9215
MEAN_ANOMALY   = 51.1644

EPHEMERIS_TYPE = 0
CLASSIFICATION_TYPE = U
NORAD_CAT_ID   = 66910
ELEMENT_SET_NO = 999
REV_AT_EPOCH   = 1107
BSTAR          = .13239129E-2
MEAN_MOTION_DOT = .120044E-2
MEAN_MOTION_DDOT = 0

CCSDS_OMM_VERS = 2.0
CREATION_DATE  = 
ORIGINATOR     = 

OBJECT_NAME    = ISS OBJECT XX
OBJECT_ID      = 1998-067XX
CENTER_NAME    = EARTH
REF_FRAME      = TEME
TIME_SYSTEM    = UTC
MEAN_ELEMENT_THEORY = SGP/SGP4

EPOCH          = 2026-02-10T18:34:46.863264
MEAN_MOTION    = 15.64924245
ECCENTRICITY   = .00031137
INCLINATION    = 51.6242
RA_OF_ASC_NODE = 201.4179
ARG_OF_PERICENTER = 297.9049
MEAN_ANOMALY   = 62.1630

EPHEMERIS_TYPE = 0
CLASSIFICATION_TYPE = U
NORAD_CAT_ID   = 66911
ELEMENT_SET_NO = 999
REV_AT_EPOCH   = 1096
BSTAR          = .15123327E-2
MEAN_MOTION_DOT = .153398E-2
MEAN_MOTION_DDOT = 0

CCSDS_OMM_VERS = 2.0
CREATION_DATE  = 
ORIGINATOR     = 

OBJECT_NAME    = ISS OBJECT XY
OBJECT_ID      = 1998-067XY
CENTER_NAME    = EARTH
REF_FRAME      = TEME
TIME_SYSTEM    = UTC
MEAN_ELEMENT_THEORY = SGP/SGP4

EPOCH          = 2026-02-11T14:16:29.941536
MEAN_MOTION    = 15.59201207
ECCENTRICITY   = .00003204
INCLINATION    = 51.6288
RA_OF_ASC_NODE = 198.6600
ARG_OF_PERICENTER = 244.0670
MEAN_ANOMALY   = 116.0289

EPHEMERIS_TYPE = 0
CLASSIFICATION_TYPE = U
NORAD_CAT_ID   = 66912
ELEMENT_SET_NO = 999
REV_AT_EPOCH   = 1107
BSTAR          = .99236523E-3
MEAN_MOTION_DOT = .79626E-3
MEAN_MOTION_DDOT = 0

CCSDS_OMM_VERS = 2.0
CREATION_DATE  = 
ORIGINATOR     = 

OBJECT_NAME    = ISS OBJECT XZ
OBJECT_ID      = 1998-067XZ
CENTER_NAME    = EARTH
REF_FRAME      = TEME
TIME_SYSTEM    = UTC
MEAN_ELEMENT_THEORY = SGP/SGP4

EPOCH          = 2026-02-11T15:04:37.124544
MEAN_MOTION    = 15.49713606
ECCENTRICITY   = .0010783
INCLINATION    = 51.6304
RA_OF_ASC_NODE = 201.1284
ARG_OF_PERICENTER = 102.2228
MEAN_ANOMALY   = 257.9969

EPHEMERIS_TYPE = 0
CLASSIFICATION_TYPE = U
NORAD_CAT_ID   = 67683
ELEMENT_SET_NO = 999
REV_AT_EPOCH   = 74
BSTAR          = .73126713E-3
MEAN_MOTION_DOT = .41158E-3
MEAN_MOTION_DDOT = 0

CCSDS_OMM_VERS = 2.0
CREATION_DATE  = 
ORIGINATOR     = 

OBJECT_NAME    = GXIBA-1
OBJECT_ID      = 1998-067YA
CENTER_NAME    = EARTH
REF_FRAME      = TEME
TIME_SYSTEM    = UTC
MEAN_ELEMENT_THEORY = SGP/SGP4

EPOCH          = 2026-02-11T15:01:41.945088
MEAN_MOTION    = 15.50357854
ECCENTRICITY   = .00126539
INCLINATION    = 51.6305
RA_OF_ASC_NODE = 201.1159
ARG_OF_PERICENTER = 96.7363
MEAN_ANOMALY   = 263.5066

EPHEMERIS_TYPE = 0
CLASSIFICATION_TYPE = U
NORAD_CAT_ID   = 67684
ELEMENT_SET_NO = 999
REV_AT_EPOCH   = 74
BSTAR          = .1245049E-2
MEAN_MOTION_DOT = .72379E-3
MEAN_MOTION_DDOT = 0

CCSDS_OMM_VERS = 2.0
CREATION_DATE  = 
ORIGINATOR     = 

OBJECT_NAME    = CORAL
OBJECT_ID      = 1998-067YB
CENTER_NAME    = EARTH
REF_FRAME      = TEME
TIME_SYSTEM    = UTC
MEAN_ELEMENT_THEORY = SGP/SGP4

EPOCH          = 2026-02-11T15:03:59.418720
MEAN_MOTION    = 15.49836283
ECCENTRICITY   = .00127339
INCLINATION    = 51.6306
RA_OF_ASC_NODE = 201.1261
ARG_OF_PERICENTER = 97.5927
MEAN_ANOMALY   = 262.6509

EPHEMERIS_TYPE = 0
CLASSIFICATION_TYPE = U
NORAD_CAT_ID   = 67685
ELEMENT_SET_NO = 999
REV_AT_EPOCH   = 74
BSTAR          = .81304768E-3
MEAN_MOTION_DOT = .46083E-3
MEAN_MOTION_DDOT = 0

CCSDS_OMM_VERS = 2.0
CREATION_DATE  = 
ORIGINATOR     = 

OBJECT_NAME    = ISS OBJECT YC
OBJECT_ID      = 1998-067YC
CENTER_NAME    = EARTH
REF_FRAME      = TEME
TIME_SYSTEM    = UTC
MEAN_ELEMENT_THEORY = SGP/SGP4

EPOCH          = 2026-02-11T15:03:31.488192
MEAN_MOTION    = 15.49959251
ECCENTRICITY   = .00077757
INCLINATION    = 51.6310
RA_OF_ASC_NODE = 201.1247
ARG_OF_PERICENTER = 73.6798
MEAN_ANOMALY   = 286.5046

EPHEMERIS_TYPE = 0
CLASSIFICATION_TYPE = U
NORAD_CAT_ID   = 67686
ELEMENT_SET_NO = 999
REV_AT_EPOCH   = 74
BSTAR          = .89043817E-3
MEAN_MOTION_DOT = .50665E-3
MEAN_MOTION_DDOT = 0

CCSDS_OMM_VERS = 2.0
CREATION_DATE  = 
ORIGINATOR     = 

OBJECT_NAME    = LEOPARD
OBJECT_ID      = 1998-067YD
CENTER_NAME    = EARTH
REF_FRAME      = TEME
TIME_SYSTEM    = UTC
MEAN_ELEMENT_THEORY = SGP/SGP4

EPOCH          = 2026-02-11T15:04:14.895552
MEAN_MOTION    = 15.49787740
ECCENTRICITY   = .00078547
INCLINATION    = 51.6307
RA_OF_ASC_NODE = 201.1270
ARG_OF_PERICENTER = 75.3633
MEAN_ANOMALY   = 284.8226

EPHEMERIS_TYPE = 0
CLASSIFICATION_TYPE = U
NORAD_CAT_ID   = 67687
ELEMENT_SET_NO = 999
REV_AT_EPOCH   = 66
BSTAR          = .80285161E-3
MEAN_MOTION_DOT = .45329E-3
MEAN_MOTION_DDOT = 0

CCSDS_OMM_VERS = 2.0
CREATION_DATE  = 
ORIGINATOR     = 

OBJECT_NAME    = ISS OBJECT YE
OBJECT_ID      = 1998-067YE
CENTER_NAME    = EARTH
REF_FRAME      = TEME
TIME_SYSTEM    = UTC
MEAN_ELEMENT_THEORY = SGP/SGP4

EPOCH          = 2026-02-11T15:03:39.554496
MEAN_MOTION    = 15.49908969
ECCENTRICITY   = .00077464
INCLINATION    = 51.6309
RA_OF_ASC_NODE = 201.1248
ARG_OF_PERICENTER = 74.2001
MEAN_ANOMALY   = 285.9842

EPHEMERIS_TYPE = 0
CLASSIFICATION_TYPE = U
NORAD_CAT_ID   = 67688
ELEMENT_SET_NO = 999
REV_AT_EPOCH   = 66
BSTAR          = .86921332E-3
MEAN_MOTION_DOT = .49349E-3
MEAN_MOTION_DDOT = 0

